*******************************************************************************
JPL/HORIZONS               200 Dynamene (A879 OA)          2020-Jun-22 08:38:40
Rec #:     200 (+COV) Soln.date: 2020-Feb-22_15:20:41   # obs: 3166 (1879-2019)
 
IAU76/J2000 helio. ecliptic osc. elements (au, days, deg., period=Julian yrs):
 
  EPOCH=  2454851.5 ! 2009-Jan-20.00 (TDB)         Residual RMS= .31186
   EC= .1342135009084647   QR= 2.36943594023735    TP= 2454248.0446257442
   OM= 324.6876872714469   W=  85.81030414580036   IN= 6.901970605889495
   A= 2.736743923269288    MA= 131.3705413722023   ADIST= 3.104051906301226
   PER= 4.52751            N= .217697187           ANGMOM= .028200144
   DAN= 2.66135            DDN= 2.71406            L= 50.467518
   B= 6.8834366            MOID= 1.39162004        TP= 2007-May-27.5446257442
 
Asteroid physical parameters (km, seconds, rotational period in hours):
   GM= n.a.                RAD= 64.1505            ROTPER= 37.394
   H= 8.3                  G= .150                 B-V= .727
                           ALBEDO= .053            STYP= Ch
 
ASTEROID comments: 
1: soln ref.= JPL#92, OCC=0
2: source=ORB
*******************************************************************************
 
 
*******************************************************************************
Ephemeris / WWW_USER Mon Jun 22 08:38:40 2020 Pasadena, USA      / Horizons
*******************************************************************************
Target body name: 200 Dynamene (A879 OA)          {source: JPL#92}
Center body name: Solar System Barycenter (0)     {source: DE431}
Center-site name: BODY CENTER
*******************************************************************************
Start time      : A.D. 1969-Jun-28 00:00:00.0000 TDB
Stop  time      : A.D. 2071-May-04 00:00:00.0000 TDB
Step-size       : 7200 minutes
*******************************************************************************
Center geodetic : 0.00000000,0.00000000,0.0000000 {E-lon(deg),Lat(deg),Alt(km)}
Center cylindric: 0.00000000,0.00000000,0.0000000 {E-lon(deg),Dxy(km),Dz(km)}
Center radii    : (undefined)                                                  
Small perturbers: Yes                             {source: SB431-N16}
Output units    : AU-D
Output type     : GEOMETRIC cartesian states
Output format   : 2 (position and velocity)
Reference frame : Ecliptic of J2000.0
*******************************************************************************
Initial IAU76/J2000 heliocentric ecliptic osculating elements (au, days, deg.):
  EPOCH=  2454851.5 ! 2009-Jan-20.00 (TDB)         Residual RMS= .31186        
   EC= .1342135009084647   QR= 2.36943594023735    TP= 2454248.0446257442      
   OM= 324.6876872714469   W=  85.81030414580036   IN= 6.901970605889495       
  Equivalent ICRF heliocentric equatorial cartesian coordinates (au, au/d):
   X=-2.926730721044359E+00  Y=-4.644588265110072E-01  Z=-4.914946494976819E-01
  VX= 1.159900893981033E-03 VY=-8.216305959482573E-03 VZ=-4.477059068976216E-03
Asteroid physical parameters (km, seconds, rotational period in hours):        
   GM= n.a.                RAD= 64.1505            ROTPER= 37.394              
   H= 8.3                  G= .150                 B-V= .727                   
                           ALBEDO= .053            STYP= Ch                    
*******************************************************************************
            JDTDB,            Calendar Date (TDB),        delta-T,                      X,                      Y,                      Z,                     VX,                     VY,                     VZ,
******************************************************************************************************************************************************************************************************************
$$SOE
2456220.500000000, A.D. 2012-Oct-20 00:00:00.0000,      67.182418, -1.884208507232897E+00,  1.873893657347038E+00,  5.302154244731326E-02, -8.441559312146735E-03, -6.453476851550311E-03, -1.228132801512231E-03,
2456225.500000000, A.D. 2012-Oct-25 00:00:00.0000,      67.182460, -1.926043751805061E+00,  1.841260023471730E+00,  4.687085806510198E-02, -8.292188381415991E-03, -6.599357613931073E-03, -1.232055343674676E-03,
2456230.500000000, A.D. 2012-Oct-30 00:00:00.0000,      67.182511, -1.967126972392142E+00,  1.807906276500857E+00,  4.070183972633031E-02, -8.140766202121353E-03, -6.741521285536495E-03, -1.235467460882270E-03,
2456235.500000000, A.D. 2012-Nov-04 00:00:00.0000,      67.182575, -2.007448158610415E+00,  1.773851011853691E+00,  3.451702329560250E-02, -7.987390836318522E-03, -6.879964295951305E-03, -1.238375678522222E-03,
2456240.500000000, A.D. 2012-Nov-09 00:00:00.0000,      67.182650, -2.046997786129630E+00,  1.739112836662229E+00,  2.831891170259380E-02, -7.832158636917008E-03, -7.014685511229333E-03, -1.240786642837257E-03,
2456245.500000000, A.D. 2012-Nov-14 00:00:00.0000,      67.182738, -2.085766808035770E+00,  1.703710357875753E+00,  2.210997437247458E-02, -7.675164212050231E-03, -7.145686119564983E-03, -1.242707107129619E-03,
2456250.500000000, A.D. 2012-Nov-19 00:00:00.0000,      67.182835, -2.123746646030275E+00,  1.667662170930538E+00,  1.589264672401982E-02, -7.516500395302802E-03, -7.272969519551436E-03, -1.244143918488875E-03,
2456255.500000000, A.D. 2012-Nov-24 00:00:00.0000,      67.182939, -2.160929181495457E+00,  1.630986848972236E+00,  9.669329732683673E-03, -7.356258221996362E-03, -7.396541210780475E-03, -1.245104005087315E-03,
2456260.500000000, A.D. 2012-Nov-29 00:00:00.0000,      67.183051, -2.197306746456422E+00,  1.593702932620533E+00,  3.442389555627499E-03, -7.194526911422664E-03, -7.516408686231403E-03, -1.245594364114782E-03,
2456265.500000000, A.D. 2012-Dec-04 00:00:00.0000,      67.183169, -2.232872114467002E+00,  1.555828920268090E+00, -2.785842784556275E-03, -7.031393853950081E-03, -7.632581326225248E-03, -1.245622050352150E-03,
2456270.500000000, A.D. 2012-Dec-09 00:00:00.0000,      67.183296, -2.267618491440436E+00,  1.517383258904113E+00, -9.013071660362155E-03, -6.866944601707233E-03, -7.745070294820574E-03, -1.245194165278676E-03,
2456275.500000000, A.D. 2012-Dec-14 00:00:00.0000,      67.183430, -2.301539506442496E+00,  1.478384335447917E+00, -1.523703704668665E-02, -6.701262862999485E-03, -7.853888439449805E-03, -1.244317846693502E-03,
2456280.500000000, A.D. 2012-Dec-19 00:00:00.0000,      67.183568, -2.334629202467355E+00,  1.438850468576830E+00, -2.145551467771494E-02, -6.534430501016104E-03, -7.959050193435985E-03, -1.243000258935711E-03,
2456285.500000000, A.D. 2012-Dec-24 00:00:00.0000,      67.183707, -2.366882027217031E+00,  1.398799901035281E+00, -2.766631615645202E-02, -6.366527536421116E-03, -8.060571480994807E-03, -1.241248583712277E-03,
2456290.500000000, A.D. 2012-Dec-29 00:00:00.0000,      67.183848, -2.398292823902016E+00,  1.358250792412332E+00, -3.386728901978036E-02, -6.197632153148924E-03, -8.158469624911919E-03, -1.239070011472987E-03,
2456295.500000000, A.D. 2013-Jan-03 00:00:00.0000,      67.183990, -2.428856822078094E+00,  1.317221212373481E+00, -4.005631676166128E-02, -6.027820707053427E-03, -8.252763257190971E-03, -1.236471733285311E-03,
2456300.500000000, A.D. 2013-Jan-08 00:00:00.0000,      67.184134, -2.458569628533230E+00,  1.275729134331515E+00, -4.623131881691182E-02, -5.857167737263413E-03, -8.343472232795333E-03, -1.233460933189486E-03,
2456305.500000000, A.D. 2013-Jan-13 00:00:00.0000,      67.184278, -2.487427218237725E+00,  1.233792429540907E+00, -5.239025050793834E-02, -5.685745980114711E-03, -8.430617546482380E-03, -1.230044781023969E-03,
2456310.500000000, A.D. 2013-Jan-18 00:00:00.0000,      67.184419, -2.515425925370163E+00,  1.191428861600399E+00, -5.853110295675315E-02, -5.513626385500805E-03, -8.514221252684896E-03, -1.226230425711682E-03,
2456315.500000000, A.D. 2013-Jan-23 00:00:00.0000,      67.184556, -2.542562434430766E+00,  1.148656081348679E+00, -6.465190296455188E-02, -5.340878135457879E-03, -8.594306388381594E-03, -1.222024988995486E-03,
2456320.500000000, A.D. 2013-Jan-28 00:00:00.0000,      67.184687, -2.568833771452849E+00,  1.105491622138362E+00, -7.075071286106119E-02, -5.167568664779593E-03, -8.670896898900049E-03, -1.217435559608963E-03,
2456325.500000000, A.D. 2013-Feb-02 00:00:00.0000,      67.184814, -2.594237295321968E+00,  1.061952895473725E+00, -7.682563032579520E-02, -4.993763683446359E-03, -8.744017566597921E-03, -1.212469187865387E-03,
2456330.500000000, A.D. 2013-Feb-07 00:00:00.0000,      67.184935, -2.618770689211263E+00,  1.018057186997936E+00, -8.287478818325850E-02, -4.819527200630233E-03, -8.813693942382652E-03, -1.207132880643960E-03,
2456335.500000000, A.D. 2013-Feb-12 00:00:00.0000,      67.185051, -2.642431952140258E+00,  9.738216528156101E-01, -8.889635417402254E-02, -4.644921550037666E-03, -8.879952280066192E-03, -1.201433596748445E-03,
2456340.500000000, A.D. 2013-Feb-17 00:00:00.0000,      67.185157, -2.665219390663348E+00,  9.292633161364199E-01, -9.488853070348369E-02, -4.470007416424074E-03, -8.942819473592318E-03, -1.195378242619710E-03,
2456345.500000000, A.D. 2013-Feb-22 00:00:00.0000,      67.185254, -2.687131610693842E+00,  8.843990642253728E-01, -1.008495545700852E-01, -4.294843863341185E-03, -9.002322997129050E-03, -1.188973668414981E-03,
2456350.500000000, A.D. 2013-Feb-27 00:00:00.0000,      67.185340, -2.708167509470149E+00,  8.392456456459341E-01, -1.067776966749130E-01, -4.119488362220937E-03, -9.058490847771231E-03, -1.182226664476796E-03,
2456355.500000000, A.D. 2013-Mar-04 00:00:00.0000,      67.185416, -2.728326267669927E+00,  7.938196677838234E-01, -1.126712617145120E-01, -3.943996822356608E-03, -9.111351490552888E-03, -1.175143958132536E-03,
